{
  "type": "FeatureCollection",
  "features": [
    {
      "type": "Feature",
      "properties": {
        "norad_id": 66559,
        "name": "STARLINK-35419",
        "group": "last-30-days",
        "lat": -33.22511501694603,
        "lon": 44.1655053420159,
        "alt_km": 343.14686136639557,
        "timestamp": "2025-12-02T21:34:00.043135+00:00",
        "meta_object_name": "STARLINK-35419",
        "meta_object_id": "2025-268C",
        "meta_epoch": "2025-12-02T12:00:05.998752",
        "meta_mean_motion": 15.77474507,
        "meta_eccentricity": 0.0001638,
        "meta_inclination": 42.9975,
        "meta_ra_of_asc_node": 181.9234,
        "meta_arg_of_pericenter": 269.927,
        "meta_mean_anomaly": 218.4229,
        "meta_ephemeris_type": 0,
        "meta_classification_type": "U",
        "meta_norad_cat_id": 66559,
        "meta_element_set_no": 999,
        "meta_rev_at_epoch": 302,
        "meta_bstar": -0.010002,
        "meta_mean_motion_dot": -0.01505562,
        "meta_mean_motion_ddot": 0,
        "tle_line1": "1 66559U 25268C   25336.50006943 -.01505562  00000+0 -10002-1 0  9999",
        "tle_line2": "2 66559  42.9975 181.9234 0001638 269.9270 218.4229 15.77474507  3020"
      },
      "geometry": {
        "type": "Point",
        "coordinates": [
          44.1655053420159,
          -33.22511501694603
        ]
      }
    },
    {
      "type": "Feature",
      "properties": {
        "norad_id": 66560,
        "name": "STARLINK-35411",
        "group": "last-30-days",
        "lat": -34.15425241313346,
        "lon": 46.22330519034067,
        "alt_km": 343.2996492125785,
        "timestamp": "2025-12-02T21:34:00.043145+00:00",
        "meta_object_name": "STARLINK-35411",
        "meta_object_id": "2025-268D",
        "meta_epoch": "2025-12-02T12:00:05.998752",
        "meta_mean_motion": 15.77450741,
        "meta_eccentricity": 0.000151,
        "meta_inclination": 42.9974,
        "meta_ra_of_asc_node": 181.9184,
        "meta_arg_of_pericenter": 269.112,
        "meta_mean_anomaly": 221.2252,
        "meta_ephemeris_type": 0,
        "meta_classification_type": "U",
        "meta_norad_cat_id": 66560,
        "meta_element_set_no": 999,
        "meta_rev_at_epoch": 302,
        "meta_bstar": -0.010022,
        "meta_mean_motion_dot": -0.01506752,
        "meta_mean_motion_ddot": 0,
        "tle_line1": "1 66560U 25268D   25336.50006943 -.01506752  00000+0 -10022-1 0  9995",
        "tle_line2": "2 66560  42.9974 181.9184 0001510 269.1120 221.2252 15.77450741  3022"
      },
      "geometry": {
        "type": "Point",
        "coordinates": [
          46.22330519034067,
          -34.15425241313346
        ]
      }
    },
    {
      "type": "Feature",
      "properties": {
        "norad_id": 66561,
        "name": "STARLINK-35305",
        "group": "last-30-days",
        "lat": -35.90859493353276,
        "lon": 50.484510230637134,
        "alt_km": 343.5564215068389,
        "timestamp": "2025-12-02T21:34:00.043155+00:00",
        "meta_object_name": "STARLINK-35305",
        "meta_object_id": "2025-268E",
        "meta_epoch": "2025-12-02T12:00:05.998752",
        "meta_mean_motion": 15.77398062,
        "meta_eccentricity": 0.0001561,
        "meta_inclination": 42.9974,
        "meta_ra_of_asc_node": 181.9088,
        "meta_arg_of_pericenter": 272.38,
        "meta_mean_anomaly": 221.9627,
        "meta_ephemeris_type": 0,
        "meta_classification_type": "U",
        "meta_norad_cat_id": 66561,
        "meta_element_set_no": 999,
        "meta_rev_at_epoch": 297,
        "meta_bstar": -0.010178,
        "meta_mean_motion_dot": -0.01524111,
        "meta_mean_motion_ddot": 0,
        "tle_line1": "1 66561U 25268E   25336.50006943 -.01524111  00000+0 -10178-1 0  9997",
        "tle_line2": "2 66561  42.9974 181.9088 0001561 272.3800 221.9627 15.77398062  2976"
      },
      "geometry": {
        "type": "Point",
        "coordinates": [
          50.484510230637134,
          -35.90859493353276
        ]
      }
    },
    {
      "type": "Feature",
      "properties": {
        "norad_id": 66562,
        "name": "STARLINK-35579",
        "group": "last-30-days",
        "lat": -35.056836152696754,
        "lon": 48.347370735918936,
        "alt_km": 343.45387111765103,
        "timestamp": "2025-12-02T21:34:00.043165+00:00",
        "meta_object_name": "STARLINK-35579",
        "meta_object_id": "2025-268F",
        "meta_epoch": "2025-12-02T12:00:05.998752",
        "meta_mean_motion": 15.77412926,
        "meta_eccentricity": 0.0001557,
        "meta_inclination": 42.9973,
        "meta_ra_of_asc_node": 181.9134,
        "meta_arg_of_pericenter": 270.5132,
        "meta_mean_anomaly": 221.8602,
        "meta_ephemeris_type": 0,
        "meta_classification_type": "U",
        "meta_norad_cat_id": 66562,
        "meta_element_set_no": 999,
        "meta_rev_at_epoch": 302,
        "meta_bstar": -0.010124,
        "meta_mean_motion_dot": -0.01517965,
        "meta_mean_motion_ddot": 0,
        "tle_line1": "1 66562U 25268F   25336.50006943 -.01517965  00000+0 -10124-1 0  9998",
        "tle_line2": "2 66562  42.9973 181.9134 0001557 270.5132 221.8602 15.77412926  3026"
      },
      "geometry": {
        "type": "Point",
        "coordinates": [
          48.347370735918936,
          -35.056836152696754
        ]
      }
    },
    {
      "type": "Feature",
      "properties": {
        "norad_id": 66563,
        "name": "STARLINK-35437",
        "group": "last-30-days",
        "lat": -36.7333173964064,
        "lon": 52.69971230329785,
        "alt_km": 343.6357241855467,
        "timestamp": "2025-12-02T21:34:00.043174+00:00",
        "meta_object_name": "STARLINK-35437",
        "meta_object_id": "2025-268G",
        "meta_epoch": "2025-12-02T12:00:05.998752",
        "meta_mean_motion": 15.77361185,
        "meta_eccentricity": 0.0001545,
        "meta_inclination": 42.9973,
        "meta_ra_of_asc_node": 181.9032,
        "meta_arg_of_pericenter": 265.7303,
        "meta_mean_anomaly": 230.6432,
        "meta_ephemeris_type": 0,
        "meta_classification_type": "U",
        "meta_norad_cat_id": 66563,
        "meta_element_set_no": 999,
        "meta_rev_at_epoch": 302,
        "meta_bstar": -0.010282,
        "meta_mean_motion_dot": -0.0153557,
        "meta_mean_motion_ddot": 0,
        "tle_line1": "1 66563U 25268G   25336.50006943 -.01535570  00000+0 -10282-1 0  9996",
        "tle_line2": "2 66563  42.9973 181.9032 0001545 265.7303 230.6432 15.77361185  3026"
      },
      "geometry": {
        "type": "Point",
        "coordinates": [
          52.69971230329785,
          -36.7333173964064
        ]
      }
    },
    {
      "type": "Feature",
      "properties": {
        "norad_id": 66564,
        "name": "STARLINK-35358",
        "group": "last-30-days",
        "lat": -37.50158896487538,
        "lon": 54.91991416881343,
        "alt_km": 343.6895681189908,
        "timestamp": "2025-12-02T21:34:00.043187+00:00",
        "meta_object_name": "STARLINK-35358",
        "meta_object_id": "2025-268H",
        "meta_epoch": "2025-12-02T12:00:05.998752",
        "meta_mean_motion": 15.773452,
        "meta_eccentricity": 0.0001624,
        "meta_inclination": 42.9971,
        "meta_ra_of_asc_node": 181.8985,
        "meta_arg_of_pericenter": 268.9096,
        "meta_mean_anomaly": 229.4244,
        "meta_ephemeris_type": 0,
        "meta_classification_type": "U",
        "meta_norad_cat_id": 66564,
        "meta_element_set_no": 999,
        "meta_rev_at_epoch": 297,
        "meta_bstar": -0.010295,
        "meta_mean_motion_dot": -0.0153629,
        "meta_mean_motion_ddot": 0,
        "tle_line1": "1 66564U 25268H   25336.50006943 -.01536290  00000+0 -10295-1 0  9991",
        "tle_line2": "2 66564  42.9971 181.8985 0001624 268.9096 229.4244 15.77345200  2973"
      },
      "geometry": {
        "type": "Point",
        "coordinates": [
          54.91991416881343,
          -37.50158896487538
        ]
      }
    },
    {
      "type": "Feature",
      "properties": {
        "norad_id": 66565,
        "name": "STARLINK-35893",
        "group": "last-30-days",
        "lat": -38.23138086891924,
        "lon": 57.196490295285656,
        "alt_km": 343.8265121473105,
        "timestamp": "2025-12-02T21:34:00.043197+00:00",
        "meta_object_name": "STARLINK-35893",
        "meta_object_id": "2025-268J",
        "meta_epoch": "2025-12-02T12:00:05.998752",
        "meta_mean_motion": 15.77329744,
        "meta_eccentricity": 0.0001578,
        "meta_inclination": 42.9974,
        "meta_ra_of_asc_node": 181.8934,
        "meta_arg_of_pericenter": 269.9205,
        "meta_mean_anomaly": 230.3922,
        "meta_ephemeris_type": 0,
        "meta_classification_type": "U",
        "meta_norad_cat_id": 66565,
        "meta_element_set_no": 999,
        "meta_rev_at_epoch": 302,
        "meta_bstar": -0.010418,
        "meta_mean_motion_dot": -0.01551317,
        "meta_mean_motion_ddot": 0,
        "tle_line1": "1 66565U 25268J   25336.50006943 -.01551317  00000+0 -10418-1 0  9996",
        "tle_line2": "2 66565  42.9974 181.8934 0001578 269.9205 230.3922 15.77329744  3028"
      },
      "geometry": {
        "type": "Point",
        "coordinates": [
          57.196490295285656,
          -38.23138086891924
        ]
      }
    }
  ]
}